#aV2006 10 21  0  0   .00000000      96 DD+AD WGS84 FIT  NGA
## 1397 518400.00000000   900.00000000 54029  .0000000000000
+   30     1  2  3  4  5  6  7  8  9 10 11 13 14 15 16 17 18
+         19 20 21 22 23 24 25 26 27 28 29 30 31  0  0  0  0
+          0  0  0  0  0  0  0  0  0  0  0  0  0  0  0  0  0
+          0  0  0  0  0  0  0  0  0  0  0  0  0  0  0  0  0
+          0  0  0  0  0  0  0  0  0  0  0  0  0  0  0  0  0
++         0  0  0  0  0  0  0  0  0  0  0  0  0  0  0  0  0
++         0  0  0  0  0  0  0  0  0  0  0  0  0  0  0  0  0
++         0  0  0  0  0  0  0  0  0  0  0  0  0  0  0  0  0
++         0  0  0  0  0  0  0  0  0  0  0  0  0  0  0  0  0
++         0  0  0  0  0  0  0  0  0  0  0  0  0  0  0  0  0
%c cc cc ccc ccc cccc cccc cccc cccc ccccc ccccc ccccc ccccc
%c cc cc ccc ccc cccc cccc cccc cccc ccccc ccccc ccccc ccccc
%f  0.0000000  0.000000000  0.00000000000  0.000000000000000
%f  0.0000000  0.000000000  0.00000000000  0.000000000000000
%i    0    0    0    0      0      0      0      0         0
%i    0    0    0    0      0      0      0      0         0
/*      NGA, ST. LOUIS,MO.                                  
/*   EPHEMERIS COMPUTED FROM  3 DAYS OF DATA                
/* CCCCCCCCCCCCCCCCCCCCCCCCCCCCCCCCCCCCCCCCCCCCCCCCCCCCCCCCC
/* CCCCCCCCCCCCCCCCCCCCCCCCCCCCCCCCCCCCCCCCCCCCCCCCCCCCCCCCC
*  2006 10 21  3 45   .00000000                                                 
P  1 -14986.379872  20112.682898  -8433.883337     83.807586                    
V  1   2750.564642 -10790.951282 -29971.139288       .023937                    
P  2  18499.596767 -12795.204898  13700.505864     46.797797                    
V  2  18120.159092    -64.137732 -24339.740881       .037061                    
P  3 -11089.711743  23227.699510   5636.366203    321.564574                    
V  3  -1829.978557  -8326.611906  30054.546095       .387725                    
P  4  26074.879059  -5386.380739   2600.874216    326.631257                    
V  4   3683.636379   2426.033103 -31011.287241       .048230                    
P  5 -10772.160780 -22250.012578 -10151.030282    364.282761                    
V  5  10753.268926   7113.479476 -27461.716692       .015178                    
P  6 -10888.643673 -13783.295363  20097.150715    575.089692                    
V  6   9612.362898 -23348.781166 -10966.502338      -.095336                    
P  7 -17124.054577  10807.415771  17568.596337    510.348002                    
V  7   4844.007814 -21243.868848  18054.598082      -.061482                    
P  8  26086.813012   1191.464122   5835.589721    -83.700731                    
V  8  -7239.418745   2743.720614  30644.065936      -.012616                    
P  9   -809.859563 -15513.819349 -22105.859018     41.181059                    
V  9  26301.903008  -4695.559046   2637.588642       .016458                    
P 10   6023.589942 -15367.350224  20640.323427     91.493627                    
V 10  16790.552154  20492.118770  10611.696081       .005913                    
P 11   4988.592965  15865.855518 -20786.454057    356.128937                    
V 11 -25337.241540   7837.101448    177.503336       .017786                    
P 13   9841.969417  12291.112408  21307.290208    105.190855                    
V 13 -11126.505632  24792.545861  -9084.678070       .035174                    
P 14 -16576.123097   6060.706777 -19748.322104     -3.006812                    
V 14   8702.969520 -23663.707921 -14581.847832       .008669                    
P 15 -26398.856135  -1076.335953   4317.775392    -11.607311                    
V 15   5375.886214  -3006.614702  30721.693464       .559137                    
P 16  -8923.665659  12905.658104  21492.268744     84.029253                    
V 16 -17089.975751 -21067.583105   5694.467118       .035838                    
P 17  16967.361154  -5519.761149 -19646.855556     92.204460                    
V 17  -8016.918182  23680.450560 -13684.602059      -.011098                    
P 18 -19260.311923 -16526.049761  -8251.612368   -251.315439                    
V 18  -4186.172167 -10025.203897  29076.340326      -.006915                    
P 19  -7421.226223  24861.830023  -5377.381221     26.296035                    
V 19  -5565.893083   5100.910513  30763.768418       .035902                    
P 20  12647.613766  22546.860363  -6250.340162    -22.001257                    
V 20  -7133.035181  -4282.898958 -30274.346206       .001123                    
P 21 -23181.706813  -6175.616088  12060.089161     58.030451                    
V 21  14644.893674  -4110.061694  25690.903821       .016156                    
P 22 -18954.194962  -4674.259363 -17857.991805    143.450402                    
V 22 -11995.032384 -19720.314189  17706.979236       .028908                    
P 23   2615.767394  21581.077462  15041.565171    139.053572                    
V 23  -8900.699034  17250.137604 -23257.284123       .005478                    
P 24  25409.096594  -6399.113909   5516.308921     45.741335                    
V 24   6889.243539   1848.076879 -30476.339786       .031360                    
P 25 -22677.611133  11595.790459   8197.549972    387.177231                    
V 25 -10161.308094   -111.684073 -29239.986467       .123155                    
P 26   7026.608689 -24858.550215  -5064.600196   -302.032749                    
V 26   4389.976810  -4644.164831  31945.537837      -.156752                    
P 27  21031.692994   6666.057159  15617.444968     73.872568                    
V 27 -17864.366412   5490.994035  22320.259439       .019981                    
P 28  19964.673591   8675.983332 -15156.467949     16.087930                    
V 28  10421.545870  16755.222579  22525.824714      -.007491                    
P 29   9514.722386 -24612.161591     -5.765884     99.275953                    
V 29   2165.252249    533.327915  32559.663612       .501164                    
P 30 -18231.050633 -19290.279286   1766.861703     13.837592                    
V 30    762.271559  -4079.805725 -31216.945845       .012591                    
P 31 -24149.399924   8737.779170   7037.851350    -68.811544                    
V 31  -8986.510820  -1296.787418 -29995.578303       .131028                    
EOF
